[{"OBJECT_NAME":"OBJECT C","OBJECT_ID":"2024-092C","EPOCH":"2026-03-09T23:10:26.961312","MEAN_MOTION":15.27308901,"ECCENTRICITY":0.00097974,"INCLINATION":97.6475,"RA_OF_ASC_NODE":197.1606,"ARG_OF_PERICENTER":169.1353,"MEAN_ANOMALY":191.0098,"EPHEMERIS_TYPE":0,"CLASSIFICATION_TYPE":"U","NORAD_CAT_ID":59775,"ELEMENT_SET_NO":999,"REV_AT_EPOCH":10042,"BSTAR":0.00057925748,"MEAN_MOTION_DOT":0.00015454,"MEAN_MOTION_DDOT":0},{"OBJECT_NAME":"STARLINK-36052","OBJECT_ID":"2025-270T","EPOCH":"2026-03-08T16:55:25.747968","MEAN_MOTION":15.27576761,"ECCENTRICITY":1.786e-5,"INCLINATION":43.0007,"RA_OF_ASC_NODE":61.8777,"ARG_OF_PERICENTER":336.7746,"MEAN_ANOMALY":23.3097,"EPHEMERIS_TYPE":0,"CLASSIFICATION_TYPE":"U","NORAD_CAT_ID":66605,"ELEMENT_SET_NO":999,"REV_AT_EPOCH":1755,"BSTAR":0.00098873896,"MEAN_MOTION_DOT":0.00027043,"MEAN_MOTION_DDOT":0}]
